[{"OBJECT_NAME":"GEESAT-6 09","OBJECT_ID":"2025-214K","EPOCH":"2026-03-09T22:24:29.731680","MEAN_MOTION":14.8300753,"ECCENTRICITY":0.00083289,"INCLINATION":49.9843,"RA_OF_ASC_NODE":48.1126,"ARG_OF_PERICENTER":190.9189,"MEAN_ANOMALY":169.1569,"EPHEMERIS_TYPE":0,"CLASSIFICATION_TYPE":"U","NORAD_CAT_ID":65721,"ELEMENT_SET_NO":999,"REV_AT_EPOCH":2477,"BSTAR":0.00038162115,"MEAN_MOTION_DOT":2.911e-5,"MEAN_MOTION_DDOT":0},{"OBJECT_NAME":"NOAA 16 DEB","OBJECT_ID":"2000-055CH","EPOCH":"2026-03-08T23:14:05.839296","MEAN_MOTION":14.8199625,"ECCENTRICITY":0.00272924,"INCLINATION":98.8096,"RA_OF_ASC_NODE":249.8066,"ARG_OF_PERICENTER":262.6687,"MEAN_ANOMALY":97.1421,"EPHEMERIS_TYPE":0,"CLASSIFICATION_TYPE":"U","NORAD_CAT_ID":41150,"ELEMENT_SET_NO":999,"REV_AT_EPOCH":53750,"BSTAR":0.0055111324,"MEAN_MOTION_DOT":0.0004421,"MEAN_MOTION_DDOT":0}]
